COSMOS 2251 DEB         
1 35759U 93036ARD 21030.21546216  .00000106  00000+0  28655-4 0  9999
2 35759  74.0415   9.6734 0087380 222.0924 137.3508 14.58056088401870
COSMOS 2251 DEB         
1 35760U 93036ARE 21029.65130286  .00004506  00000+0  38211-3 0  9999
2 35760  73.9844 108.5140 0033789 346.9587 163.0642 14.97830888633357
COSMOS 2251 DEB         
1 35763U 93036ARH 21030.07108711  .00001508  00000+0  37725-3 0  9996
2 35763  73.8590 139.5111 0081985 354.6788 179.3938 14.50437180357537
COSMOS 2251 DEB         
1 35765U 93036ARK 21030.57949226  .00000715  00000+0  15525-3 0  9990
2 35765  74.1207 250.0412 0137966 309.6066  49.2980 14.54339939483192
COSMOS 2251 DEB         
1 35767U 93036ARM 21028.14957478  .00000951  00000+0  33437-3 0  9994
2 35767  73.9960 350.4814 0059256 117.7107 243.0074 14.35260817393923
COSMOS 2251 DEB         
1 35769U 93036ARP 21030.62167772  .00001101  00000+0  29940-3 0  9994
2 35769  74.0743 259.2990 0071168  10.5383 349.7247 14.47239421397693
COSMOS 2251 DEB         
1 35771U 93036ARR 21030.54281846  .00000971  00000+0  68541-3 0  9991
2 35771  74.1828  74.5993 0306066 115.3554 247.9597 13.78858645581649
COSMOS 2251 DEB         
1 35772U 93036ARS 21029.68736415  .00001086  00000+0  27431-3 0  9993
2 35772  73.9755 180.9390 0097818  51.3030 309.6827 14.49444836402803
COSMOS 2251 DEB         
1 35773U 93036ART 21030.48615305  .00000282  00000+0  77805-4 0  9996
2 35773  74.0118 107.6597 0058177 337.5829  22.2789 14.50628280610001
COSMOS 2251 DEB         
1 35775U 93036ARV 21030.22391514  .00001144  00000+0  21925-3 0  9992
2 35775  74.0336  17.9042 0037990 251.7938 119.8287 14.64577530621993
COSMOS 2251 DEB         
1 35776U 93036ARW 21029.46708108  .00001946  00000+0  38009-3 0  9999
2 35776  74.0075 110.3724 0325381 186.1533 173.5585 14.35024384356934
COSMOS 2251 DEB         
1 35777U 93036ARX 21030.44151867  .00000299  00000+0  32336-3 0  9991
2 35777  73.7701 275.0827 0457141  71.0620  98.0588 13.38942428558803
COSMOS 2251 DEB         
1 35782U 93036ASC 21030.58673237  .00004503  00000+0  40803-3 0  9992
2 35782  73.9701 142.3154 0020418  75.0801 285.2642 14.95523947418135
COSMOS 2251 DEB         
1 35784U 93036ASE 21030.08513660  .00000123  00000+0  42232-4 0  9995
2 35784  74.0396 171.0607 0044527  21.2008 339.0982 14.45351362399947
COSMOS 2251 DEB         
1 35785U 93036ASF 21005.04742448  .00002240  00000+0  59620-3 0  9992
2 35785  73.9456 281.7816 0058007  78.1722 282.5935 14.48124174384559
COSMOS 2251 DEB         
1 35786U 93036ASG 21030.09378422  .00000486  00000+0  13695-3 0  9995
2 35786  74.0210 165.6482 0049402   7.0202 353.1637 14.47850996475767
COSMOS 2251 DEB         
1 35787U 93036ASH 21018.07479759  .00000176  00000+0  68794-4 0  9992
2 35787  74.0386 313.2567 0020632 114.7327 245.5977 14.36484099327510
COSMOS 2251 DEB         
1 35788U 93036ASJ 21030.61750148  .00001269  00000+0  28036-3 0  9999
2 35788  74.0178 107.3692 0026435 304.1419  55.7239 14.58161466614813
COSMOS 2251 DEB         
1 35789U 93036ASK 21029.99198217  .00000065  00000+0  31874-4 0  9990
2 35789  74.0404 302.0553 0048082 117.6721 242.9323 14.34404511357274
COSMOS 2251 DEB         
1 35793U 93036ASP 21030.18896927  .00000721  00000+0  20061-3 0  9995
2 35793  74.0497 194.5841 0012350 359.8361 172.1054 14.48185276399050
COSMOS 2251 DEB         
1 35795U 93036ASR 21030.47859192  .00001855  00000+0  28025-3 0  9999
2 35795  74.0113 302.7432 0029017 184.3365 175.7562 14.74792167364371
COSMOS 2251 DEB         
1 35796U 93036ASS 21028.39325581  .00001160  00000+0  35176-3 0  9992
2 35796  74.0077 269.9539 0044934  75.0279 285.5845 14.42766561459179
COSMOS 2251 DEB         
1 35824U 93036ASW 21030.17180123  .00000153  00000+0  12769-3 0  9998
2 35824  73.8454 199.5890 0277221 239.7544 117.5874 13.80643128596448
COSMOS 2251 DEB         
1 35825U 93036ASX 21028.10371226  .00000499  00000+0  41228-3 0  9990
2 35825  74.1178 163.7125 0376740 319.6736  37.6983 13.63141137582089
COSMOS 2251 DEB         
1 35829U 93036ATB 21030.25787122  .00000689  00000+0  20211-3 0  9999
2 35829  74.0365 222.3658 0017228   6.1671 353.9696 14.45641404619294
COSMOS 2251 DEB         
1 35830U 93036ATC 21030.24502238  .00000315  00000+0  16982-3 0  9999
2 35830  73.8817 215.9371 0147988 164.7151 195.8533 14.11338305361121
COSMOS 2251 DEB         
1 35834U 93036ATG 21030.59105721 -.00000091  00000+0 -34489-4 0  9993
2 35834  73.9492 220.9014 0117608  25.1610  32.7271 14.11294853411821
COSMOS 2251 DEB         
1 35835U 93036ATH 21030.14887603  .00000196  00000+0  15741-3 0  9994
2 35835  74.0671 354.0589 0314994 182.0292 177.9578 13.75551844372097
COSMOS 2251 DEB         
1 35836U 93036ATJ 21030.42520631  .00000792  00000+0  24632-3 0  9992
2 35836  74.0419 274.3196 0043339  57.0902 303.4411 14.42076483377450
COSMOS 2251 DEB         
1 35837U 93036ATK 21029.84227375  .00000965  00000+0  82244-3 0  9991
2 35837  73.7315 229.2556 0478691  39.5776 335.7543 13.45939762339461
COSMOS 2251 DEB         
1 35839U 93036ATM 21030.62236472  .00000915  00000+0  19809-3 0  9991
2 35839  74.2407 159.8426 0032665 147.3679 224.2644 14.59288320623511
COSMOS 2251 DEB         
1 35840U 93036ATN 21028.07238957  .00000735  00000+0  32301-3 0  9991
2 35840  73.9384 151.7143 0146411  74.5527 287.1733 14.19652347599281
COSMOS 2251 DEB         
1 35841U 93036ATP 21026.17766794  .00004752  00000+0  41727-3 0  9991
2 35841  74.0422 184.9231 0106450 304.5501  54.5669 14.92583643373894
COSMOS 2251 DEB         
1 35881U 93036ATU 21030.41613707  .00002042  00000+0  74409-3 0  9995
2 35881  74.2051 195.2333 0063098 150.8414 209.6286 14.32618304447438
COSMOS 2251 DEB         
1 35883U 93036ATW 21030.32878003  .00000100  00000+0  34586-4 0  9995
2 35883  74.0251 156.7928 0090623   0.4329  29.5260 14.45775477366699
COSMOS 2251 DEB         
1 35885U 93036ATY 21030.48431335  .00000142  00000+0  60159-4 0  9998
2 35885  74.0311 314.2420 0024160 109.3087 251.0681 14.33798665395208
COSMOS 2251 DEB         
1 35887U 93036AUA 21004.21650697  .00000894  00000+0  38981-3 0  9997
2 35887  73.9887 192.6824 0115818  36.9081 323.9962 14.21810705387548
COSMOS 2251 DEB         
1 35888U 93036AUB 21030.48203802  .00000238  00000+0  66955-4 0  9993
2 35888  74.0349 111.4225 0058189 325.6789  34.0617 14.50428858604587
COSMOS 2251 DEB         
1 35890U 93036AUD 21029.50077424  .00000715  00000+0  25371-3 0  9992
2 35890  73.9464 317.4062 0077727 116.4779 244.4372 14.34559671395220
COSMOS 2251 DEB         
1 35891U 93036AUE 21029.42677343  .00000679  00000+0  79030-4 0  9991
2 35891  74.0013  91.0475 0126514 313.4165  45.6533 14.82147342406418
COSMOS 2251 DEB         
1 35893U 93036AUG 21027.80875850  .00001057  00000+0  28383-3 0  9991
2 35893  73.6526  61.8112 0068044 170.2188 190.0313 14.48135247399576
COSMOS 2251 DEB         
1 35895U 93036AUJ 21030.05795210  .00000543  00000+0  36226-3 0  9999
2 35895  74.0525 159.9346 0226834 310.2043  47.9425 13.91797281352942
COSMOS 2251 DEB         
1 35897U 93036AUL 21030.42438943  .00001532  00000+0  88858-4 0  9997
2 35897  73.9589 193.7268 0097482  97.3759 263.8524 15.09301065626566
COSMOS 2251 DEB         
1 35898U 93036AUM 21030.22533090  .00000403  00000+0  63052-4 0  9990
2 35898  73.9989 201.8014 0119825  70.1474 102.0122 14.71692241405324
COSMOS 2251 DEB         
1 35900U 93036AUP 21018.90393876  .00000941  00000+0  25954-3 0  9996
2 35900  74.0262 250.8690 0028595  32.1107 328.1787 14.47986344316166
COSMOS 2251 DEB         
1 35901U 93036AUQ 21029.20395435  .00000846  00000+0  22892-3 0  9997
2 35901  74.0335 195.6355 0016398 352.2498 181.5082 14.49225058601154
COSMOS 2251 DEB         
1 35902U 93036AUR 21029.13871870  .00000240  00000+0  12362-3 0  9991
2 35902  73.9860 187.6656 0121225 342.0545  17.6333 14.16727492358786
COSMOS 2251 DEB         
1 35903U 93036AUS 21029.19442079  .00000829  00000+0  11030-3 0  9997
2 35903  74.0606 195.2306 0098911 346.5785  13.2760 14.78213295408527
COSMOS 2251 DEB         
1 35904U 93036AUT 21029.84745422  .00000893  00000+0  19545-3 0  9998
2 35904  74.0246  73.6060 0030658 288.2166  71.5663 14.59007299400786
COSMOS 2251 DEB         
1 35905U 93036AUU 21028.58268258  .00000415  00000+0  55184-4 0  9996
2 35905  74.0385 141.3957 0131673 330.2651  29.1083 14.77758638621819
COSMOS 2251 DEB         
1 35906U 93036AUV 21030.40452630  .00001342  00000+0  17663-3 0  9999
2 35906  74.0200 262.5942 0113561 210.9611 323.3176 14.76907302615898
COSMOS 2251 DEB         
1 35956U 93036AUW 21029.38107653  .00000411  00000+0  29552-3 0  9997
2 35956  74.0974  27.8214 0309846 171.9325 188.6954 13.79033998371737
COSMOS 2251 DEB         
1 35959U 93036AUZ 21030.51306361  .00000042  00000+0  24770-4 0  9992
2 35959  74.0345 320.4980 0021802 115.2047 245.1368 14.32659120594678
COSMOS 2251 DEB         
1 35960U 93036AVA 21030.54655603  .00002950  00000+0  23942-3 0  9992
2 35960  74.0090  75.2543 0062518 257.1622 102.2575 14.98648090626485
COSMOS 2251 DEB         
1 35961U 93036AVB 21030.33435174  .00000755  00000+0  47366-3 0  9996
2 35961  73.9289  58.0470 0212622 350.1598   9.5396 13.95695721378226
COSMOS 2251 DEB         
1 35965U 93036AVF 21027.49970241  .00007281  00000+0  59146-3 0  9992
2 35965  74.0335 111.1914 0034836 300.6709  59.1045 14.99299763463656
COSMOS 2251 DEB         
1 35966U 93036AVG 21029.33131322  .00000793  00000+0  36438-3 0  9997
2 35966  74.0395 254.4165 0160489  53.1548 308.4188 14.16155043463016
COSMOS 2251 DEB         
1 35968U 93036AVJ 21030.61473928  .00001256  00000+0  13849-3 0  9999
2 35968  73.7088 346.3110 0086240 185.8071 174.2116 14.86176102635590
COSMOS 2251 DEB         
1 35970U 93036AVL 21030.33573322  .00000791  00000+0  16939-3 0  9996
2 35970  74.0405  60.9773 0043410 256.2290 103.4042 14.59902980606492
COSMOS 2251 DEB         
1 35974U 93036AVQ 21030.03996015  .00001051  00000+0  25587-3 0  9994
2 35974  74.0305 140.3482 0018469 323.0339  36.9549 14.53936487400765
